{"fetched_at":"2026-07-11T06:35:28.067Z","source":"https://celestrak.org/NORAD/elements/gp.php?NAME=GLOBAL&FORMAT=JSON","constellation":"blacksky-gen3","records":[{"OBJECT_NAME":"GLOBAL-31","OBJECT_ID":"2025-033B","EPOCH":"2026-07-09T11:19:51.921408","CLASSIFICATION_TYPE":"U","MEAN_MOTION":15.38240728,"ECCENTRICITY":0.00114169,"INCLINATION":58.9971,"RA_OF_ASC_NODE":226.0954,"ARG_OF_PERICENTER":53.9236,"MEAN_ANOMALY":306.2895,"EPHEMERIS_TYPE":0,"NORAD_CAT_ID":63027,"ELEMENT_SET_NO":999,"REV_AT_EPOCH":7775,"BSTAR":0.00019192673,"MEAN_MOTION_DOT":0.00006977,"MEAN_MOTION_DDOT":0},{"OBJECT_NAME":"GLOBAL-32","OBJECT_ID":"2025-118B","EPOCH":"2026-07-09T23:58:49.307520","CLASSIFICATION_TYPE":"U","MEAN_MOTION":15.39197639,"ECCENTRICITY":0.0016007,"INCLINATION":58.9937,"RA_OF_ASC_NODE":40.2064,"ARG_OF_PERICENTER":58.0056,"MEAN_ANOMALY":302.2573,"EPHEMERIS_TYPE":0,"NORAD_CAT_ID":64231,"ELEMENT_SET_NO":999,"REV_AT_EPOCH":6175,"BSTAR":0.00027500401,"MEAN_MOTION_DOT":0.00010504,"MEAN_MOTION_DDOT":0},{"OBJECT_NAME":"GLOBAL-33","OBJECT_ID":"2025-267A","EPOCH":"2026-07-09T07:54:46.365120","CLASSIFICATION_TYPE":"U","MEAN_MOTION":15.37229901,"ECCENTRICITY":0.00083993,"INCLINATION":42.02,"RA_OF_ASC_NODE":287.4239,"ARG_OF_PERICENTER":42.3015,"MEAN_ANOMALY":317.8471,"EPHEMERIS_TYPE":0,"NORAD_CAT_ID":66554,"ELEMENT_SET_NO":999,"REV_AT_EPOCH":3545,"BSTAR":0.0002664807,"MEAN_MOTION_DOT":0.00009691,"MEAN_MOTION_DDOT":0},{"OBJECT_NAME":"GLOBAL-34","OBJECT_ID":"2026-043A","EPOCH":"2026-07-10T02:13:10.062048","CLASSIFICATION_TYPE":"U","MEAN_MOTION":15.33044397,"ECCENTRICITY":0.00013666,"INCLINATION":42.0214,"RA_OF_ASC_NODE":88.2955,"ARG_OF_PERICENTER":75.7388,"MEAN_ANOMALY":284.3602,"EPHEMERIS_TYPE":0,"NORAD_CAT_ID":68098,"ELEMENT_SET_NO":999,"REV_AT_EPOCH":1934,"BSTAR":0.0002323296,"MEAN_MOTION_DOT":0.0000733,"MEAN_MOTION_DDOT":0}]}
