GLOBAL-31               
1 63027U 25033B   26190.47212872  .00006977  00000+0  19193-3 0  9996
2 63027  58.9971 226.0954 0011416  53.9236 306.2895 15.38240728 77757
GLOBAL-32               
1 64231U 25118B   26190.99918180  .00010504  00000+0  27500-3 0  9992
2 64231  58.9937  40.2064 0016007  58.0056 302.2573 15.39197639 61757
GLOBAL-33               
1 66554U 25267A   26190.32970330  .00009691  00000+0  26648-3 0  9996
2 66554  42.0200 287.4239 0008399  42.3015 317.8471 15.37229901 35452
GLOBAL-34               
1 68098U 26043A   26191.09247757  .00007330  00000+0  23233-3 0  9994
2 68098  42.0214  88.2955 0001366  75.7388 284.3602 15.33044397 19348
